#aV2008  8 16  0  0   .00000000      96 DD+AD WGS84 FIT  NGA
## 1492 518400.00000000   900.00000000 54694  .0000000000000
+   31     2  3  4  5  6  7  8  9 10 11 12 13 14 15 16 17 18
+         19 20 21 22 23 24 25 26 27 28 29 30 31 32  0  0  0
+          0  0  0  0  0  0  0  0  0  0  0  0  0  0  0  0  0
+          0  0  0  0  0  0  0  0  0  0  0  0  0  0  0  0  0
+          0  0  0  0  0  0  0  0  0  0  0  0  0  0  0  0  0
++         0  0  0  0  0  0  0  0  0  0  0  0  0  0  0  0  0
++         0  0  0  0  0  0  0  0  0  0  0  0  0  0  0  0  0
++         0  0  0  0  0  0  0  0  0  0  0  0  0  0  0  0  0
++         0  0  0  0  0  0  0  0  0  0  0  0  0  0  0  0  0
++         0  0  0  0  0  0  0  0  0  0  0  0  0  0  0  0  0
%c cc cc ccc ccc cccc cccc cccc cccc ccccc ccccc ccccc ccccc
%c cc cc ccc ccc cccc cccc cccc cccc ccccc ccccc ccccc ccccc
%f  0.0000000  0.000000000  0.00000000000  0.000000000000000
%f  0.0000000  0.000000000  0.00000000000  0.000000000000000
%i    0    0    0    0      0      0      0      0         0
%i    0    0    0    0      0      0      0      0         0
/*      NGA, ST. LOUIS,MO.                                  
/*   EPHEMERIS COMPUTED FROM  3 DAYS OF DATA                
/* CCCCCCCCCCCCCCCCCCCCCCCCCCCCCCCCCCCCCCCCCCCCCCCCCCCCCCCCC
/* CCCCCCCCCCCCCCCCCCCCCCCCCCCCCCCCCCCCCCCCCCCCCCCCCCCCCCCCC
*  2008  8 16 11 45   .00000000                                                 
P  2  13526.023004  14431.821600 -18036.009263    194.495575                    
V  2   -976.141361  22579.755344  17107.404833      -.027614                    
P  3 -24479.154520 -10794.485463   -642.898725    270.416909                    
V  3   1845.142776  -3113.856009 -30731.170223       .053507                    
P  4   7344.278171  23419.097886  -9769.430681   -144.098536                    
V  4  -3188.461340  12448.266517  28095.969506      -.104766                    
P  5  21431.266890 -15553.312915    248.204990    554.981896                    
V  5   1540.010556   3199.845018  31454.357366     -2.702212                    
P  6 -22094.846984 -14175.070970  -3821.474233    167.162925                    
V  6   6193.211061   -978.177763 -30647.204529       .009729                    
P  7  -7854.835726  22377.502160 -11897.236018      8.993815                    
V  7  -2643.689016 -15042.046626 -26701.277155       .039048                    
P  8   -821.370468  26277.705393    175.791710   -166.059123                    
V  8  -2495.793472    236.643505 -32594.431758      -.014680                    
P  9  13647.770175  -8108.273850  20628.498767     10.288262                    
V  9   2383.378614  27595.103982   9122.994656       .017308                    
P 10  19378.146296   3491.072629 -18113.192351     -3.897111                    
V 10 -18987.796616  12328.024360 -17753.839801      -.003602                    
P 11 -13902.536654  10836.844767  19634.959309     21.569960                    
V 11  -7082.319477 -24740.589132   8909.578465      -.006237                    
P 12  23917.513243 -10356.414874   4903.049772   -354.349570                    
V 12  -3882.166685   5471.485149  31093.509262       .011453                    
P 13  -8190.910782  11979.035186 -22363.641501    267.825590                    
V 13 -23801.040704 -14767.193764    818.330895       .013290                    
P 14 -10360.921523 -18508.199547  16162.201961   -231.502407                    
V 14  18004.692210   9288.527903  22213.430512       .045720                    
P 15  24125.250508   4985.015804   9968.447966   -160.894032                    
V 15   9906.044393   8242.738232 -28148.545323      -.064910                    
P 16 -14843.258970  -7838.767723 -20569.604259    111.909994                    
V 16  22293.830227 -13770.486888 -10603.371628      -.018836                    
P 17  10663.017108  18719.352588  15688.237065     38.932747                    
V 17 -18104.130623  -8176.516909  21955.415641      -.000457                    
P 18  13399.820422 -18504.382987  13422.885425   -144.415596                    
V 18  16118.045989  -5793.071398 -24802.634305       .041753                    
P 19 -23505.549243  -5809.873994  11230.413029     34.742281                    
V 19 -10544.308095  -9607.524433 -27035.524252       .003497                    
P 20 -23199.962502  12684.655388   2216.273961    107.309325                    
V 20    748.523178  -4370.379348  31280.011930      -.010712                    
P 21   5029.467644 -24822.940054  -6650.063062     54.247041                    
V 21   3952.923539   8911.949020 -29985.455210      -.013967                    
P 22    124.991655 -17015.569283  20539.908229    211.307356                    
V 22  23127.285735 -11472.563745  -9783.563507       .000824                    
P 23 -18374.554485   4477.269540 -18820.124601    369.220649                    
V 23 -20104.309308 -12491.393742  16453.967616       .016196                    
P 24  12909.455325 -15306.320579 -17420.372838    117.539667                    
V 24    994.968324  22409.266299 -18505.299723       .029796                    
P 25  -9885.773328  17522.356184 -17075.634323   -226.721854                    
V 25  -4168.952223 -21965.017472 -19544.978372      -.230420                    
P 26  23950.985676  10467.420172   5607.595798    310.694078                    
V 26   5791.343285   5166.508940 -31077.340016       .061311                    
P 27  -4257.021198  24303.162619  -8988.445283    210.512901                    
V 27  -3525.369222 -12160.434485 -29167.745776       .027718                    
P 28  -1341.685073  17125.980333  20556.904395    -21.871480                    
V 28 -22561.931343  11528.905576 -11623.002375      -.002133                    
P 29  11559.163074 -10559.199376 -21335.645772    -39.778045                    
V 29  23402.632398  14204.629337   5650.405728       .008092                    
P 30  17113.509464 -18543.733885  -8484.683381     91.463173                    
V 30  10242.501333  -3243.004119  29047.908383       .020680                    
P 31  -8727.424726 -21867.787551 -11984.836322    -25.078804                    
V 31   1937.402308 -15607.035110  26725.564530      -.000600                    
P 32 -24467.903057   4968.580487   9222.899110    313.481334                    
V 32   8945.781239  -7071.530852  29078.114153       .015693                    
EOF
